[{"OBJECT_NAME":"STARLINK-33808","OBJECT_ID":"2025-089S","EPOCH":"2026-03-09T22:13:05.312352","MEAN_MOTION":15.27633939,"ECCENTRICITY":8.098e-5,"INCLINATION":43.0063,"RA_OF_ASC_NODE":43.9014,"ARG_OF_PERICENTER":298.3836,"MEAN_ANOMALY":61.6934,"EPHEMERIS_TYPE":0,"CLASSIFICATION_TYPE":"U","NORAD_CAT_ID":63767,"ELEMENT_SET_NO":999,"REV_AT_EPOCH":4899,"BSTAR":0.0014210755,"MEAN_MOTION_DOT":0.00039114,"MEAN_MOTION_DDOT":0},{"OBJECT_NAME":"CZ-6A DEB","OBJECT_ID":"2023-168D","EPOCH":"2026-03-09T19:03:52.964928","MEAN_MOTION":15.28240044,"ECCENTRICITY":0.00013417,"INCLINATION":97.7802,"RA_OF_ASC_NODE":98.3362,"ARG_OF_PERICENTER":174.0661,"MEAN_ANOMALY":186.0594,"EPHEMERIS_TYPE":0,"CLASSIFICATION_TYPE":"U","NORAD_CAT_ID":58202,"ELEMENT_SET_NO":999,"REV_AT_EPOCH":12922,"BSTAR":0.0014474773,"MEAN_MOTION_DOT":0.00039923,"MEAN_MOTION_DDOT":0}]
